{
"type": "FeatureCollection",
"name": "border",
"crs": { "type": "name", "properties": { "name": "urn:ogc:def:crs:OGC:1.3:CRS84" } },
"features": [
{ "type": "Feature", "properties": { "Shape__Are": 5545942.1911199996, "Shape__Len": 13757.1217431 }, "geometry": { "type": "MultiPolygon", "coordinates": [ [ [ [ 34.930268542991811, 32.510699752220141 ], [ 34.930331548324801, 32.510703831861981 ], [ 34.930387014884595, 32.510014693835615 ], [ 34.930446469726284, 32.509272019523969 ], [ 34.930509778494269, 32.508518648115476 ], [ 34.930552951681193, 32.507990099608584 ], [ 34.930592771741708, 32.507469435707577 ], [ 34.930645147768423, 32.507470115967877 ], [ 34.930700079701303, 32.506846348287276 ], [ 34.930451830257397, 32.506298568047193 ], [ 34.929359311608977, 32.503873906279651 ], [ 34.929259799369206, 32.503726081317623 ], [ 34.929279620543497, 32.503698876087903 ], [ 34.929247862879869, 32.503708349685766 ], [ 34.929184330924109, 32.503613971511321 ], [ 34.927229083823207, 32.499279362069409 ], [ 34.926036886660917, 32.496666528351383 ], [ 34.925105550689835, 32.494606017602251 ], [ 34.921753749698517, 32.485795075654607 ], [ 34.920280957716372, 32.481950040140738 ], [ 34.919831483655194, 32.480784659944398 ], [ 34.919791105168215, 32.480675855347044 ], [ 34.918626273714267, 32.480991301725361 ], [ 34.918168832483033, 32.481118478366149 ], [ 34.918086136511917, 32.481144213392732 ], [ 34.917842519181328, 32.481225944216412 ], [ 34.917770957575776, 32.481252267066239 ], [ 34.917408611834382, 32.481400227844645 ], [ 34.917339357971805, 32.4814327596523 ], [ 34.917082143305251, 32.481557286832128 ], [ 34.917012883829877, 32.481591510102248 ], [ 34.916866822814718, 32.481679095774915 ], [ 34.916809697125437, 32.481712780359494 ], [ 34.9167477202203, 32.48175715923923 ], [ 34.915440915235763, 32.482668865058244 ], [ 34.913050878193857, 32.484344127231239 ], [ 34.913198721401159, 32.484488560367396 ], [ 34.913620440151483, 32.484900551730135 ], [ 34.913762036678278, 32.485026188423937 ], [ 34.913906520876729, 32.485174387627936 ], [ 34.914110646820355, 32.485368638792032 ], [ 34.9144882612228, 32.485731137449676 ], [ 34.914648093450531, 32.485886004309997 ], [ 34.914840941285021, 32.48606949946906 ], [ 34.915234540310429, 32.486449010510277 ], [ 34.915555062902925, 32.486752986503596 ], [ 34.915714883563169, 32.486912944969596 ], [ 34.91587267328341, 32.487081387508397 ], [ 34.915954560913413, 32.487169860479369 ], [ 34.916180974262303, 32.487409191076878 ], [ 34.916256823230327, 32.487506138051224 ], [ 34.916350654909152, 32.487620104905488 ], [ 34.916460434679813, 32.487761272040601 ], [ 34.916616675549115, 32.487956276103631 ], [ 34.916842183462251, 32.488258998094125 ], [ 34.917056357669843, 32.488562723576514 ], [ 34.917148112538825, 32.488700453911896 ], [ 34.917233838147453, 32.48884326341971 ], [ 34.917330813086004, 32.489010540049151 ], [ 34.917395450124154, 32.489131440580628 ], [ 34.917398194505964, 32.489146710504173 ], [ 34.917459565297932, 32.489248204531542 ], [ 34.917483681847564, 32.489306855142388 ], [ 34.917509702953787, 32.489354424162329 ], [ 34.917522683896181, 32.489387710632897 ], [ 34.917565450895204, 32.489460656558386 ], [ 34.917637847291054, 32.489622353793798 ], [ 34.917735173804452, 32.489812122866674 ], [ 34.917868797019182, 32.490121240638629 ], [ 34.91793372203778, 32.49028133813556 ], [ 34.917965540190941, 32.490366491025284 ], [ 34.918017439114244, 32.490507553867033 ], [ 34.918054437337211, 32.490631163974818 ], [ 34.918084078549903, 32.490716748317034 ], [ 34.918104472188965, 32.490770639088474 ], [ 34.918132269189847, 32.490848301992692 ], [ 34.918173365639845, 32.49096970852522 ], [ 34.918225150979445, 32.491147195677215 ], [ 34.918260205165588, 32.491294555685911 ], [ 34.918295591252296, 32.491427514834449 ], [ 34.918306662226811, 32.49147346624288 ], [ 34.918336308959631, 32.491557467082743 ], [ 34.918352788756103, 32.491666776726575 ], [ 34.918376717167668, 32.491785605773408 ], [ 34.918395220717656, 32.491845825977052 ], [ 34.918417324923858, 32.491950398052836 ], [ 34.918442956506858, 32.492121490970987 ], [ 34.918457715291822, 32.492219274319282 ], [ 34.918466927058098, 32.492262053691128 ], [ 34.918470460481672, 32.492326992005943 ], [ 34.91848693055654, 32.49243946848889 ], [ 34.918496103347145, 32.492494918038261 ], [ 34.918503350577865, 32.492567782916346 ], [ 34.918510508729497, 32.492669152315202 ], [ 34.918519547666094, 32.492803605206511 ], [ 34.918526509453073, 32.492966737544037 ], [ 34.918535141413621, 32.493193219601757 ], [ 34.918534625542762, 32.493356334942789 ], [ 34.918532174904058, 32.493549186882568 ], [ 34.918522246732074, 32.493732868326312 ], [ 34.918514262024686, 32.493892799795745 ], [ 34.918501970017566, 32.494061197775991 ], [ 34.918474898185075, 32.494397664343879 ], [ 34.91844238687289, 32.494641994671319 ], [ 34.918415838817907, 32.494825237034796 ], [ 34.918398241299791, 32.494915626536788 ], [ 34.918377759757504, 32.495005503607103 ], [ 34.918348379473855, 32.495172136781704 ], [ 34.918316076397602, 32.495350478627572 ], [ 34.91829852402789, 32.495426204212706 ], [ 34.918272187101387, 32.495521077077349 ], [ 34.918234151214392, 32.495687185558538 ], [ 34.918161213395415, 32.495941199518086 ], [ 34.918126172191663, 32.496073097573841 ], [ 34.918085437052483, 32.496180542970009 ], [ 34.918035914344578, 32.496329516640586 ], [ 34.917962837261776, 32.496476050687193 ], [ 34.917795621878632, 32.49689260368514 ], [ 34.91730984043312, 32.498033245299553 ], [ 34.917091936657108, 32.498547988566116 ], [ 34.916492382911308, 32.499953783005786 ], [ 34.915636892673518, 32.502040762161933 ], [ 34.914436585041415, 32.504796405661033 ], [ 34.914436019011482, 32.504797704654834 ], [ 34.914182409504306, 32.504755151508284 ], [ 34.914182255290591, 32.50475512500234 ], [ 34.913823396386157, 32.505623704743897 ], [ 34.913247556463972, 32.506970786022663 ], [ 34.91266574767004, 32.508375091517863 ], [ 34.912274609463871, 32.509295341775399 ], [ 34.912109331923155, 32.509689429463492 ], [ 34.911983250994609, 32.51013361173753 ], [ 34.911876759987848, 32.51060561904395 ], [ 34.911809683273255, 32.511061050287225 ], [ 34.911782906066797, 32.511655545534033 ], [ 34.911782783336918, 32.511658280199903 ], [ 34.912066734874067, 32.511715575368591 ], [ 34.91206706217897, 32.51220697192872 ], [ 34.912115262652321, 32.512532573754449 ], [ 34.912340648774425, 32.513547249041032 ], [ 34.912527027613081, 32.514367365971623 ], [ 34.912713527238836, 32.515188020242654 ], [ 34.912924226045398, 32.516127762286409 ], [ 34.913134912493923, 32.517067392008862 ], [ 34.91334140915427, 32.517983498033644 ], [ 34.913547930881684, 32.518899708259212 ], [ 34.913707258268765, 32.519606528189968 ], [ 34.91375445671688, 32.519815921643193 ], [ 34.913887150416379, 32.520412657806801 ], [ 34.914019812210583, 32.521009260250175 ], [ 34.914209719394478, 32.521860246381145 ], [ 34.914351426780385, 32.522489032123481 ], [ 34.914493085840526, 32.523117561447464 ], [ 34.914517785379594, 32.523118457882831 ], [ 34.914997735952298, 32.523135884370205 ], [ 34.915039338552688, 32.523137394895976 ], [ 34.915421713902226, 32.523151276895312 ], [ 34.91556651212808, 32.523156532918243 ], [ 34.915674211520631, 32.523160448415169 ], [ 34.915893326651549, 32.523168399471068 ], [ 34.91613306221943, 32.523177100753408 ], [ 34.916366991398768, 32.523185600723252 ], [ 34.916611571422031, 32.52319447449846 ], [ 34.916840188099954, 32.52320277748079 ], [ 34.917079455612402, 32.523211457855304 ], [ 34.917207055883452, 32.523216178556922 ], [ 34.917612355640323, 32.523230798766868 ], [ 34.918992417050148, 32.52347787372414 ], [ 34.921077249139664, 32.523851093393461 ], [ 34.921081610546452, 32.523851874196467 ], [ 34.92108476884367, 32.523852439481132 ], [ 34.921106934513332, 32.524030707312896 ], [ 34.921160256954579, 32.524030285457108 ], [ 34.921160308049032, 32.524030283768703 ], [ 34.921542832172392, 32.524013163165982 ], [ 34.921845713037861, 32.523999932925413 ], [ 34.922229292715883, 32.52398316518169 ], [ 34.922311211499483, 32.523979583300715 ], [ 34.922439053546448, 32.523975492044102 ], [ 34.922574327905735, 32.523967676032655 ], [ 34.922640476284833, 32.523964713257314 ], [ 34.922663665453292, 32.52396368132063 ], [ 34.922726106008106, 32.523960590265069 ], [ 34.922726145394655, 32.523960588549798 ], [ 34.922760526329775, 32.523958855764626 ], [ 34.923840233628447, 32.523917624965485 ], [ 34.92548375546189, 32.523839666333721 ], [ 34.925717832987473, 32.523828560064572 ], [ 34.92580781824482, 32.523824290427491 ], [ 34.926758102594029, 32.523779202246935 ], [ 34.927217715370382, 32.523757391320217 ], [ 34.929221165728755, 32.523664913788373 ], [ 34.929222389908531, 32.523664856952337 ], [ 34.929320314822945, 32.523651189008469 ], [ 34.929320467065672, 32.523651175815452 ], [ 34.929363048336782, 32.523124757625617 ], [ 34.929401214529243, 32.52260522074716 ], [ 34.929443072446148, 32.522075545611166 ], [ 34.929486404395078, 32.52155376197566 ], [ 34.929528737076993, 32.52103141341685 ], [ 34.929566773873731, 32.52050060439273 ], [ 34.929572890270805, 32.520403119022866 ], [ 34.929612412726463, 32.519930922071701 ], [ 34.92965456923573, 32.519411393560453 ], [ 34.929712767282496, 32.518757199449112 ], [ 34.929762102489718, 32.518119332471684 ], [ 34.929781084553106, 32.517838149234379 ], [ 34.929802084733474, 32.517493846500614 ], [ 34.929816662757595, 32.517403704303646 ], [ 34.929816372718427, 32.517388486055275 ], [ 34.929846901779612, 32.517084218410503 ], [ 34.929882324627101, 32.516590035173863 ], [ 34.930182242890503, 32.512615744662149 ], [ 34.930214766195803, 32.512200452586946 ], [ 34.930283233790398, 32.511283089480031 ], [ 34.930325448869596, 32.510796246119043 ], [ 34.930267428160896, 32.510792177335333 ], [ 34.930268542991811, 32.510699752220141 ] ] ] ] } }
]
}
